NIGERIAEDUSAT-1         
1 42824U 98067MY  18128.47363910  .00025583  00000-0  25187-3 0  9992
2 42824  51.6359 203.3100 0005997  31.0781 329.0568 15.65789424 47599
CORVUS BC2              
1 42846U 17042X   18128.69973042  .00000160  00000-0  21176-4 0  9996
2 42846  97.6004  32.9917 0009002 337.0466  23.0350 14.91801739 44489
CORVUS BC1              
1 42847U 17042Y   18129.21657895  .00000367  00000-0  41603-4 0  9997
2 42847  97.6004  33.5336 0008608 335.1141  24.9662 14.91901008 44556
SILU-1 (SILKROAD 1)     
1 42903U 17021F   18129.11154579  .00029999  00000-0  24404-3 0  9998
2 42903  42.7766 204.6295 0012015  19.8191  56.2052 15.69980539 43785
MIRATA                  
1 43015U 17073C   18128.75792207  .00002748  00000-0  22064-3 0  9998
2 43015  97.7023  61.4360 0259778  40.1494 321.8596 14.78015966 25315
ASTERIA                 
1 43020U 98067NH  18129.23206119  .00015560  00000-0  20598-3 0  9998
2 43020  51.6408 209.9205 0003124  26.8481 333.2673 15.58494398 26417
DELLINGR (RBLE)         
1 43021U 98067NJ  18128.66502963  .00007868  00000-0  11340-3 0  9998
2 43021  51.6389 213.6193 0002716  20.7311 339.3790 15.57035631 26311
TECHEDSAT 6             
1 43026U 98067NK  18129.20988993  .00848988  34176-3  17473-2 0  9997
2 43026  51.6221 196.0943 0014120   3.4239 356.6865 15.98516403 26497
OSIRIS-3U               
1 43027U 98067NL  18129.22273929  .00030600  00000-0  34345-3 0  9994
2 43027  51.6374 207.5872 0004618 358.7285   1.3696 15.62356299 26328
AEROCUBE 7B             
1 43042U 17071F   18128.56825292  .00005031  00000-0  13997-3 0  9999
2 43042  51.6385 234.4935 0005544 119.4417 240.7121 15.38619284 23502
AEROCUBE 7C             
1 43043U 17071G   18129.15276155  .00004576  00000-0  12824-3 0  9995
2 43043  51.6388 231.6497 0005535 122.8499 237.3019 15.38619567 23564
CHEFSAT                 
1 43044U 17071H   18128.66293075  .00007437  00000-0  19720-3 0  9992
2 43044  51.6389 233.6410 0005487 119.7983 240.3548 15.39354966 23495
ASGARDIA 1              
1 43049U 17071N   18128.55245126  .00004449  00000-0  12444-3 0  9995
2 43049  51.6390 234.3960 0002888 135.6590 224.4626 15.38752643 23474
ISARA                   
1 43050U 17071P   18128.66152286  .00006140  00000-0  16527-3 0  9999
2 43050  51.6385 233.6319 0002769 132.6377 227.4841 15.39231173 23493
FAUNA                   
1 43052U 17071R   18128.67407909  .00004111  00000-0  11533-3 0  9995
2 43052  51.6391 233.7142 0002856 132.8243 227.2981 15.38872393 23484
CORVUS BC3              
1 43118U 18004H   18129.16065681  .00001059  00000-0  49237-4 0  9998
2 43118  97.5362 191.6672 0009460 225.1119 134.9349 15.22175415 17771
MICROMAS-2A             
1 43131U 18004W   18128.73969699  .00002660  00000-0  11736-3 0  9998
2 43131  97.5368 191.3152 0008592 229.0584 130.9909 15.22647137 17713
GOMX4-B                 
1 43196U 18015E   18129.19603103  .00002326  00000-0  10000-3 0  9999
2 43196  97.3416 258.9469 0017196 296.1786  63.7567 15.23523248 14599
GOMX4-A                 
1 43197U 18015F   18129.08033670  .00000495  00000-0  23551-4 0  9995
2 43197  97.3403 258.8339 0017827 299.2325 146.9984 15.23615109 14589
